{
  "type": "FeatureCollection",
  "features": [
    {
      "type": "Feature",
      "properties": {
        "norad_id": 40010,
        "name": "KAZEOSAT 2",
        "group": "resource",
        "lat": -38.61747189136805,
        "lon": -150.13741625370264,
        "alt_km": 625.2478683326381,
        "timestamp": "2025-12-26T03:50:11.744791+00:00",
        "meta_object_name": "KAZEOSAT 2",
        "meta_object_id": "2014-033A",
        "meta_epoch": "2025-12-25T19:55:38.885952",
        "meta_mean_motion": 14.85188596,
        "meta_eccentricity": 0.0008763,
        "meta_inclination": 97.5496,
        "meta_ra_of_asc_node": 203.469,
        "meta_arg_of_pericenter": 161.8114,
        "meta_mean_anomaly": 198.3417,
        "meta_ephemeris_type": 0,
        "meta_classification_type": "U",
        "meta_norad_cat_id": 40010,
        "meta_element_set_no": 999,
        "meta_rev_at_epoch": 62322,
        "meta_bstar": 7.0756e-05,
        "meta_mean_motion_dot": 5.56e-06,
        "meta_mean_motion_ddot": 0,
        "tle_line1": "1 40010U 14033A   25359.83031118  .00000556  00000+0  70756-4 0  9999",
        "tle_line2": "2 40010  97.5496 203.4690 0008763 161.8114 198.3417 14.85188596623220"
      },
      "geometry": {
        "type": "Point",
        "coordinates": [
          -150.13741625370264,
          -38.61747189136805
        ]
      }
    },
    {
      "type": "Feature",
      "properties": {
        "norad_id": 40011,
        "name": "HODOYOSHI-4",
        "group": "resource",
        "lat": 18.65804256097498,
        "lon": 10.946034555496295,
        "alt_km": 589.1583378553587,
        "timestamp": "2025-12-26T03:50:11.744802+00:00",
        "meta_object_name": "HODOYOSHI-4",
        "meta_object_id": "2014-033B",
        "meta_epoch": "2025-12-25T20:39:28.094976",
        "meta_mean_motion": 14.87527732,
        "meta_eccentricity": 0.002418,
        "meta_inclination": 97.5411,
        "meta_ra_of_asc_node": 188.098,
        "meta_arg_of_pericenter": 157.0863,
        "meta_mean_anomaly": 203.1438,
        "meta_ephemeris_type": 0,
        "meta_classification_type": "U",
        "meta_norad_cat_id": 40011,
        "meta_element_set_no": 999,
        "meta_rev_at_epoch": 62303,
        "meta_bstar": 0.00024728,
        "meta_mean_motion_dot": 2.203e-05,
        "meta_mean_motion_ddot": 0,
        "tle_line1": "1 40011U 14033B   25359.86074184  .00002203  00000+0  24728-3 0  9991",
        "tle_line2": "2 40011  97.5411 188.0980 0024180 157.0863 203.1438 14.87527732623035"
      },
      "geometry": {
        "type": "Point",
        "coordinates": [
          10.946034555496295,
          18.65804256097498
        ]
      }
    },
    {
      "type": "Feature",
      "properties": {
        "norad_id": 40013,
        "name": "DEIMOS-2",
        "group": "resource",
        "lat": -43.100463922151405,
        "lon": 48.33511341965868,
        "alt_km": 595.5888103357056,
        "timestamp": "2025-12-26T03:50:11.744813+00:00",
        "meta_object_name": "DEIMOS-2",
        "meta_object_id": "2014-033D",
        "meta_epoch": "2025-12-25T20:24:17.509824",
        "meta_mean_motion": 14.93026526,
        "meta_eccentricity": 0.0001354,
        "meta_inclination": 97.605,
        "meta_ra_of_asc_node": 235.2183,
        "meta_arg_of_pericenter": 109.4983,
        "meta_mean_anomaly": 250.6383,
        "meta_ephemeris_type": 0,
        "meta_classification_type": "U",
        "meta_norad_cat_id": 40013,
        "meta_element_set_no": 999,
        "meta_rev_at_epoch": 61185,
        "meta_bstar": 0.00016751,
        "meta_mean_motion_dot": 1.688e-05,
        "meta_mean_motion_ddot": 0,
        "tle_line1": "1 40013U 14033D   25359.85020266  .00001688  00000+0  16751-3 0  9997",
        "tle_line2": "2 40013  97.6050 235.2183 0001354 109.4983 250.6383 14.93026526611854"
      },
      "geometry": {
        "type": "Point",
        "coordinates": [
          48.33511341965868,
          -43.100463922151405
        ]
      }
    },
    {
      "type": "Feature",
      "properties": {
        "norad_id": 40015,
        "name": "HODOYOSHI-3",
        "group": "resource",
        "lat": -41.896267750278966,
        "lon": 172.31087650652614,
        "alt_km": 630.3725448918967,
        "timestamp": "2025-12-26T03:50:11.744823+00:00",
        "meta_object_name": "HODOYOSHI-3",
        "meta_object_id": "2014-033F",
        "meta_epoch": "2025-12-25T19:56:28.490784",
        "meta_mean_motion": 14.84850258,
        "meta_eccentricity": 0.0032583,
        "meta_inclination": 97.6208,
        "meta_ra_of_asc_node": 165.0975,
        "meta_arg_of_pericenter": 203.4924,
        "meta_mean_anomaly": 156.4804,
        "meta_ephemeris_type": 0,
        "meta_classification_type": "U",
        "meta_norad_cat_id": 40015,
        "meta_element_set_no": 999,
        "meta_rev_at_epoch": 62189,
        "meta_bstar": 0.00019574,
        "meta_mean_motion_dot": 1.626e-05,
        "meta_mean_motion_ddot": 0,
        "tle_line1": "1 40015U 14033F   25359.83088531  .00001626  00000+0  19574-3 0  9994",
        "tle_line2": "2 40015  97.6208 165.0975 0032583 203.4924 156.4804 14.84850258621891"
      },
      "geometry": {
        "type": "Point",
        "coordinates": [
          172.31087650652614,
          -41.896267750278966
        ]
      }
    },
    {
      "type": "Feature",
      "properties": {
        "norad_id": 40053,
        "name": "SPOT 7",
        "group": "resource",
        "lat": -40.993758313732606,
        "lon": 69.02427813367903,
        "alt_km": 697.8721437835156,
        "timestamp": "2025-12-26T03:50:11.744834+00:00",
        "meta_object_name": "SPOT 7",
        "meta_object_id": "2014-034A",
        "meta_epoch": "2025-12-25T19:48:22.906368",
        "meta_mean_motion": 14.60750038,
        "meta_eccentricity": 0.0001527,
        "meta_inclination": 98.0884,
        "meta_ra_of_asc_node": 61.598,
        "meta_arg_of_pericenter": 80.8905,
        "meta_mean_anomaly": 279.2469,
        "meta_ephemeris_type": 0,
        "meta_classification_type": "U",
        "meta_norad_cat_id": 40053,
        "meta_element_set_no": 999,
        "meta_rev_at_epoch": 61182,
        "meta_bstar": 0.00013821,
        "meta_mean_motion_dot": 6.29e-06,
        "meta_mean_motion_ddot": 0,
        "tle_line1": "1 40053U 14034A   25359.82526512  .00000629  00000+0  13821-3 0  9993",
        "tle_line2": "2 40053  98.0884  61.5980 0001527  80.8905 279.2469 14.60750038611826"
      },
      "geometry": {
        "type": "Point",
        "coordinates": [
          69.02427813367903,
          -40.993758313732606
        ]
      }
    },
    {
      "type": "Feature",
      "properties": {
        "norad_id": 40072,
        "name": "SKYSAT-B",
        "group": "resource",
        "lat": 78.68540867819662,
        "lon": 171.90136662745758,
        "alt_km": 594.174658444259,
        "timestamp": "2025-12-26T03:50:11.744844+00:00",
        "meta_object_name": "SKYSAT-B",
        "meta_object_id": "2014-037D",
        "meta_epoch": "2025-12-25T19:19:36.203232",
        "meta_mean_motion": 14.87373258,
        "meta_eccentricity": 0.0006854,
        "meta_inclination": 98.3629,
        "meta_ra_of_asc_node": 304.2026,
        "meta_arg_of_pericenter": 113.9297,
        "meta_mean_anomaly": 246.2636,
        "meta_ephemeris_type": 0,
        "meta_classification_type": "U",
        "meta_norad_cat_id": 40072,
        "meta_element_set_no": 999,
        "meta_rev_at_epoch": 62018,
        "meta_bstar": 0.00021241,
        "meta_mean_motion_dot": 1.859e-05,
        "meta_mean_motion_ddot": 0,
        "tle_line1": "1 40072U 14037D   25359.80528013  .00001859  00000+0  21241-3 0  9994",
        "tle_line2": "2 40072  98.3629 304.2026 0006854 113.9297 246.2636 14.87373258620188"
      },
      "geometry": {
        "type": "Point",
        "coordinates": [
          171.90136662745758,
          78.68540867819662
        ]
      }
    },
    {
      "type": "Feature",
      "properties": {
        "norad_id": 40115,
        "name": "WORLDVIEW-3 (WV-3)",
        "group": "resource",
        "lat": -53.542049513524944,
        "lon": -118.52304839684795,
        "alt_km": 622.0369258638993,
        "timestamp": "2025-12-26T03:50:11.744854+00:00",
        "meta_object_name": "WORLDVIEW-3 (WV-3)",
        "meta_object_id": "2014-048A",
        "meta_epoch": "2025-12-25T18:41:50.961120",
        "meta_mean_motion": 14.8467711,
        "meta_eccentricity": 0.0002064,
        "meta_inclination": 97.8764,
        "meta_ra_of_asc_node": 71.9002,
        "meta_arg_of_pericenter": 128.2867,
        "meta_mean_anomaly": 231.8534,
        "meta_ephemeris_type": 0,
        "meta_classification_type": "U",
        "meta_norad_cat_id": 40115,
        "meta_element_set_no": 999,
        "meta_rev_at_epoch": 61617,
        "meta_bstar": 0.00014151,
        "meta_mean_motion_dot": 1.144e-05,
        "meta_mean_motion_ddot": 0,
        "tle_line1": "1 40115U 14048A   25359.77906205  .00001144  00000+0  14151-3 0  9992",
        "tle_line2": "2 40115  97.8764  71.9002 0002064 128.2867 231.8534 14.84677110616175"
      },
      "geometry": {
        "type": "Point",
        "coordinates": [
          -118.52304839684795,
          -53.542049513524944
        ]
      }
    }
  ]
}